[{"OBJECT_NAME":"JILIN-1 05","OBJECT_ID":"2017-074B","EPOCH":"2026-03-09T21:56:30.612480","MEAN_MOTION":15.3245271,"ECCENTRICITY":0.00045948,"INCLINATION":97.4781,"RA_OF_ASC_NODE":173.8936,"ARG_OF_PERICENTER":206.4038,"MEAN_ANOMALY":153.6971,"EPHEMERIS_TYPE":0,"CLASSIFICATION_TYPE":"U","NORAD_CAT_ID":43023,"ELEMENT_SET_NO":999,"REV_AT_EPOCH":45879,"BSTAR":0.00026108793,"MEAN_MOTION_DOT":8.104e-5,"MEAN_MOTION_DDOT":0},{"OBJECT_NAME":"STARLINK-30368","OBJECT_ID":"2023-131W","EPOCH":"2026-03-09T22:00:01.999584","MEAN_MOTION":15.10444621,"ECCENTRICITY":9.044e-5,"INCLINATION":43.0006,"RA_OF_ASC_NODE":170.4263,"ARG_OF_PERICENTER":221.0122,"MEAN_ANOMALY":347.301,"EPHEMERIS_TYPE":0,"CLASSIFICATION_TYPE":"U","NORAD_CAT_ID":57752,"ELEMENT_SET_NO":999,"REV_AT_EPOCH":578,"BSTAR":0.092788954,"MEAN_MOTION_DOT":0.01700378,"MEAN_MOTION_DDOT":0}]
